MAYA-1                  
1 43590U 98067PE  19201.20620057  .00007352  00000-0  87178-4 0  9998
2 43590  51.6351 183.7511 0004661 280.0888  79.9580 15.62381060 53605
BHUTAN-1                
1 43591U 98067PF  19200.36423598  .00007794  00000-0  91904-4 0  9998
2 43591  51.6358 187.9008 0004772 276.4586  83.5865 15.62426273 53475
SIRIUSSAT-1             
1 43595U 98067PG  19201.19839779  .00006650  00000-0  81823-4 0  9995
2 43595  51.6351 185.1983 0002495 227.2712 132.8072 15.61596680 52767
SIRIUSSAT-2             
1 43596U 98067PH  19201.16796543  .00007490  00000-0  91932-4 0  9999
2 43596  51.6361 185.7823 0002999 228.2900 131.7837 15.61439634 52758
TANUSHA-3               
1 43597U 98067PJ  19201.19756385  .00008963  00000-0  10207-3 0  9994
2 43597  51.6346 183.6653 0002432 251.0025 109.0705 15.63111614 52786
SURFSAT                 
1 43614U 18070B   19200.90253829  .00001527  00000-0  41443-4 0  9999
2 43614  93.0230  16.5404 0015855 175.9660 184.1724 15.37621023 47205
CP7 (DAVE)              
1 43615U 18070C   19201.49567264  .00001470  00000-0  39989-4 0  9995
2 43615  93.0231  16.7853 0016102 173.0219 187.1262 15.37537351 47291
ELFIN-B                 
1 43616U 18070D   19200.83988714  .00002252  00000-0  59872-4 0  9992
2 43616  93.0197  16.4261 0016699 179.4164 180.7112 15.38190277 47200
ELFIN-A                 
1 43617U 18070E   19200.76779365  .00002129  00000-0  56543-4 0  9990
2 43617  93.0252  16.6357 0015997 176.1507 183.9872 15.38237678 47199
CUBEBEL-1 (BSUSAT-1)    
1 43666U 18083E   19201.86914471  .00000762  00000-0  41167-4 0  9996
2 43666  97.5178 226.1252 0016778  77.7342  46.6349 15.17625373 40166
DEBRISSAT-2             
1 43680U 98067PR  19201.48323035  .00011916  00000-0  12897-3 0  9990
2 43680  51.6353 181.8648 0002282 281.9006  78.1733 15.64049082 61568
CICERO 10               
1 43690U 18088A   19201.49727031  .00000642  00000-0  28089-4 0  9996
2 43690  85.0393 297.5687 0017494  91.5188 268.8057 15.19698958 38168
IRVINE01                
1 43693U 18088D   19200.98844451  .00001393  00000-0  59858-4 0  9990
2 43693  85.0367 297.4473 0020750  80.1328 280.2255 15.21472188 38125
PROXIMA I               
1 43694U 18088E   19200.81549835  .00000566  00000-0  23224-4 0  9990
2 43694  85.0337 297.3838 0021713  72.4802 287.8810 15.21420420 38108
PROXIMA II              
1 43696U 18088G   19201.34071156  .00000553  00000-0  22661-4 0  9997
2 43696  85.0337 297.0379 0021720  70.7171 289.6417 15.21425808 38181
FACSAT-1                
1 43721U 18096C   19201.79386665  .00000821  00000-0  34374-4 0  9990
2 43721  97.4582 271.6063 0017066 212.0407 147.9795 15.26348296 35630
CENTAURI-2              
1 43722U 18096D   19201.17980930  .00001002  00000-0  41022-4 0  9998
2 43722  97.4584 271.0493 0017165 215.1119 144.8989 15.26574583 35538
INNOSAT-2               
1 43738U 18096V   19201.78640130  .00001417  00000-0  53123-4 0  9992
2 43738  97.4587 272.3833 0023271 225.6123 134.3212 15.28744559 35689
SIRION PATHFINDER-2     
1 43759U 18099B   19201.77600363 -.00000300  00000-0 -21998-4 0  9998
2 43759  97.7438 273.3665 0013535 208.4922 151.5561 14.95139831 34212
CORVUS-BC 4             
1 43767U 18099K   19200.85673009 -.00000105  00000-0 -43543-5 0  9996
2 43767  97.7423 272.2218 0010981 213.8986 146.1534 14.94580679 34072
SHIELDS 1               
1 43850U 18104B   19201.61884459  .00000041  00000-0  00000+0 0  9996
2 43850  85.0250  35.3495 0013787 204.4937 155.5646 15.21098406 32874
STF-1                   
1 43852U 18104D   19200.97599534  .00000041  00000-0  00000+0 0  9993
2 43852  85.0309  36.0286 0012968 223.4693 136.5571 15.20638942 32765
ZACUBE-2                
1 43907U 18111AH  19201.51643546  .00000222  00000-0  11938-4 0  9994
2 43907  97.2877 105.8777 0020198 236.8388 123.0912 15.24209745 31290
LUME 1                  
1 43908U 18111AJ  19201.50620375  .00000488  00000-0  22701-4 0  9993
2 43908  97.2875 105.8895 0020110 237.0134 122.9171 15.24372508 31299
AOBA VELOX-IV           
1 43940U 19003J   19201.12910367  .00001108  00000-0  48505-4 0  9991
2 43940  97.2751 258.1079 0023506 324.3278  87.3390 15.23874531 27873
CATSAT-2                
1 44029U 98067PV  19201.38954655  .00003677  00000-0  57064-4 0  9996
2 44029  51.6384 192.5208 0004358 270.7868  89.2624 15.56823019 26518
DELPHINI                
1 44030U 98067PW  19201.44549648  .00005794  00000-0  85458-4 0  9997
2 44030  51.6371 192.1313 0003883 270.9490  89.1057 15.56988888 26496
UNITE                   
1 44031U 98067PX  19201.56533493  .00003356  00000-0  54307-4 0  9993
2 44031  51.6377 192.1848 0002667 265.6683  94.4003 15.55956889 26507
TECHEDSAT 8             
1 44032U 98067PY  19201.18117187  .00014913  00000-0  18217-3 0  9990
2 44032  51.6366 191.1181 0002582 282.6822  77.3882 15.60667238 26468
CATSAT-1                
1 44033U 98067PZ  19201.45364652  .00004209  00000-0  64322-4 0  9998
2 44033  51.6384 192.1993 0004180 271.0589  88.9924 15.56822521 26434
NEPALISAT-1             
1 44329U 98067QE  19201.13456203  .00003629  00000-0  66173-4 0  9996
2 44329  51.6397 197.5611 0006875 196.8967 163.1795 15.52275897  5140
RAAVANA-1               
1 44330U 98067QF  19201.39286124  .00003576  00000-0  65399-4 0  9999
2 44330  51.6397 196.2861 0006839 196.4301 163.6468 15.52239761  5167
UGUISU                  
1 44331U 98067QG  19201.39132615  .00003570  00000-0  65139-4 0  9991
2 44331  51.6398 196.2763 0006863 199.2157 160.8575 15.52312004  5178
SPOOQY-1                
1 44332U 98067QH  19201.51929136  .00003512  00000-0  64129-4 0  9992
2 44332  51.6395 195.6302 0005597 201.3722 158.7035 15.52349543  5157
KRAKSAT                 
1 44426U 98067QL  19200.24761485  .00005017  00000-0  90314-4 0  9993
2 44426  51.6404 202.1388 0004339 147.5853 212.5404 15.51715759  2486
SWIATOWID               
1 44427U 98067QM  19201.23055058  .00002789  00000-0  53743-4 0  9994
2 44427  51.6429 197.2508 0004812 148.0534 305.7562 15.51659857  2677
VCC A                   
1 44428U 98067QN  19201.59828481  .00003374  00000-0  62936-4 0  9997
2 44428  51.6408 195.4094 0003196 168.0580 192.0486 15.51859603  2732
VCC B                   
1 44429U 98067QP  19201.21168480  .00003969  00000-0  72610-4 0  9993
2 44429  51.6408 197.3276 0003106 156.9998 203.1131 15.51892308  2679
VCC C                   
1 44430U 98067QQ  19200.31033583  .00003152  00000-0  59338-4 0  9996
2 44430  51.6406 201.8077 0003210 163.1939 196.9157 15.51848097  1357
ENTRYSAT                
1 44431U 98067QR  19201.21224953  .00003360  00000-0  62787-4 0  9993
2 44431  51.6407 197.3311 0003386 165.8943 194.2142 15.51826511  2619
